EUTELSAT 7A             
1 28187U 04008A   25347.30169964  .00000115  00000+0  00000+0 0  9992
2 28187   5.3597  74.2431 0001589 238.3967  98.9930  1.00272540 79486
EUTELSAT 174A           
1 28924U 05052A   25347.16688142  .00000022  00000+0  00000+0 0  9996
2 28924   3.7496  78.8481 0006298 183.3008  54.0478  1.00274011 50469
EUTELSAT HOTBIRD 13B    
1 29270U 06032A   25347.21030170  .00000169  00000+0  00000+0 0  9990
2 29270   1.1821  84.3666 0003732 172.3426 294.2319  1.00270041 45440
EUTELSAT HOTBIRD 13C    
1 33459U 08065A   25347.19419763 -.00000269  00000+0  00000+0 0  9990
2 33459   2.4730  81.4198 0001536 226.8591 155.9064  1.00046389 45483
EUTELSAT 36B            
1 36101U 09065A   25347.21368172  .00000125  00000+0  00000+0 0  9998
2 36101   0.0414  16.3454 0006276 246.3226 306.9225  1.00274405 58846
EUTELSAT KA-SAT 9A      
1 37258U 10069A   25347.20553500  .00000075  00000+0  00000+0 0  9992
2 37258   0.0496 336.5561 0002024 207.0971 341.5064  1.00271471 42146
EUTELSAT 7 WEST A       
1 37816U 11051A   25347.20224164 -.00000047  00000+0  00000+0 0  9995
2 37816   0.0640 343.7693 0005572 243.6422 280.2274  1.00271535 52011
EUTELSAT 16A            
1 37836U 11057A   25347.13550791  .00000117  00000+0  00000+0 0  9990
2 37836   0.0599  10.8984 0006045 255.3927 240.5655  1.00272480  5466
